COMMENT,ORIGINATOR,NORAD_CAT_ID,OBJECT_NAME,OBJECT_TYPE,CLASSIFICATION_TYPE,INTLDES,EPOCH,EPOCH_MICROSECONDS,MEAN_MOTION,ECCENTRICITY,INCLINATION,RA_OF_ASC_NODE,ARG_OF_PERICENTER,MEAN_ANOMALY,EPHEMERIS_TYPE,ELEMENT_SET_NO,REV_AT_EPOCH,BSTAR,MEAN_MOTION_DOT,MEAN_MOTION_DDOT,FILE,TLE_LINE0,TLE_LINE1,TLE_LINE2,OBJECT_ID,OBJECT_NUMBER,SEMIMAJOR_AXIS,PERIOD,APOGEE,PERIGEE,DECAYED
"GENERATED VIA SPACETRACK.ORG API","18 SPCS","55099","SPACEBEE-156","PAYLOAD","U","23001CU","2023-04-27 03:25:06","481632","15.18303007","0.0016409","97.481","177.7565","175.0666","185.0733","0","999","1735","0.00080402","0.00016503","0","3894508","0 SPACEBEE-156","1 55099U 23001CU  23117.14243613  .00016503  00000-0  80402-3 0  9994","2 55099  97.4810 177.7565 0016409 175.0666 185.0733 15.18303007 17359","2023-001CU","55099","6889.106","94.843","522.275","499.667","0"
"GENERATED VIA SPACETRACK.ORG API","18 SPCS","55099","SPACEBEE-156","PAYLOAD","U","23001CU","2023-04-27 09:44:43","203840","15.18311811","0.0016397","97.481","178.0173","174.3445","185.7977","0","999","1739","0.00082324","0.00016904","0","3894751","0 SPACEBEE-156","1 55099U 23001CU  23117.40605560  .00016904  00000-0  82324-3 0  9996","2 55099  97.4810 178.0173 0016397 174.3445 185.7977 15.18311811 17394","2023-001CU","55099","6889.079","94.842","522.240","499.648","0"
"GENERATED VIA SPACETRACK.ORG API","18 SPCS","55099","SPACEBEE-156","PAYLOAD","U","23001CU","2023-04-28 09:28:14","635776","15.18347876","0.0016371","97.4813","178.9955","171.3222","188.8298","0","999","1754","0.00081006","0.00016649","0","3895678","0 SPACEBEE-156","1 55099U 23001CU  23118.39461384  .00016649  00000-0  81006-3 0  9991","2 55099  97.4813 178.9955 0016371 171.3222 188.8298 15.18347876 17543","2023-001CU","55099","6888.970","94.840","522.113","499.557","0"
"GENERATED VIA SPACETRACK.ORG API","18 SPCS","55099","SPACEBEE-156","PAYLOAD","U","23001CU","2023-04-28 09:28:14","635776","15.18347876","0.0016371","97.4813","178.9955","171.3222","188.8298","0","999","1754","0.00081006","0.00016649","0","3895770","0 SPACEBEE-156","1 55099U 23001CU  23118.39461384  .00016649  00000-0  81006-3 0  9991","2 55099  97.4813 178.9955 0016371 171.3222 188.8298 15.18347876 17543","2023-001CU","55099","6888.970","94.840","522.113","499.557","0"
"GENERATED VIA SPACETRACK.ORG API","18 SPCS","55099","SPACEBEE-156","PAYLOAD","U","23001CU","2023-04-29 02:52:08","402016","15.18375555","0.0016587","97.481","179.7119","168.6178","191.5435","0","999","1765","0.00088112","0.00018135","0","3896517","0 SPACEBEE-156","1 55099U 23001CU  23119.11954169  .00018135  00000-0  88112-3 0  9997","2 55099  97.4810 179.7119 0016587 168.6178 191.5435 15.18375555 17650","2023-001CU","55099","6888.887","94.838","522.178","499.325","0"
"GENERATED VIA SPACETRACK.ORG API","18 SPCS","55099","SPACEBEE-156","PAYLOAD","U","23001CU","2023-04-29 17:06:13","340160","15.18399381","0.0016634","97.481","180.2986","166.6808","193.4868","0","999","1774","0.00093041","0.0001917","0","3896808","0 SPACEBEE-156","1 55099U 23001CU  23119.71265440  .00019170  00000-0  93041-3 0  9997","2 55099  97.4810 180.2986 0016634 166.6808 193.4868 15.18399381 17744","2023-001CU","55099","6888.815","94.837","522.138","499.221","0"
"GENERATED VIA SPACETRACK.ORG API","18 SPCS","55099","SPACEBEE-156","PAYLOAD","U","23001CU","2023-04-30 02:35:36","233664","15.18413216","0.0016678","97.4811","180.6898","165.2232","194.9493","0","999","1780","0.00087588","0.00018047","0","3897442","0 SPACEBEE-156","1 55099U 23001CU  23120.10805826  .00018047  00000-0  87588-3 0  9991","2 55099  97.4811 180.6898 0016678 165.2232 194.9493 15.18413216 17806","2023-001CU","55099","6888.773","94.836","522.127","499.149","0"
"GENERATED VIA SPACETRACK.ORG API","18 SPCS","55099","SPACEBEE-156","PAYLOAD","U","23001CU","2023-04-30 18:24:33","679872","15.18434974","0.001675","97.481","181.3417","162.9176","197.2625","0","999","1790","0.00077508","0.00015968","0","3897702","0 SPACEBEE-156","1 55099U 23001CU  23120.76705648  .00015968  00000-0  77508-3 0  9994","2 55099  97.4810 181.3417 0016750 162.9176 197.2625 15.18434974 17900","2023-001CU","55099","6888.707","94.834","522.111","499.033","0"
"GENERATED VIA SPACETRACK.ORG API","18 SPCS","55099","SPACEBEE-156","PAYLOAD","U","23001CU","2023-05-01 05:28:49","416672","15.18450681","0.0016783","97.481","181.798","161.3025","198.8829","0","999","1797","0.00078205","0.0001612","0","3898258","0 SPACEBEE-156","1 55099U 23001CU  23121.22834973  .00016120  00000-0  78205-3 0  9996","2 55099  97.4810 181.7980 0016783 161.3025 198.8829 15.18450681 17974","2023-001CU","55099","6888.659","94.834","522.086","498.963","0"
"GENERATED VIA SPACETRACK.ORG API","18 SPCS","55099","SPACEBEE-156","PAYLOAD","U","23001CU","2023-05-01 18:07:58","397664","15.18465521","0.001686","97.4808","182.3194","159.6071","200.584","0","999","1805","0.00073438","0.00015139","0","3898518","0 SPACEBEE-156","1 55099U 23001CU  23121.75553701  .00015139  00000-0  73438-3 0  9993","2 55099  97.4808 182.3194 0016860 159.6071 200.5840 15.18465521 18055","2023-001CU","55099","6888.615","94.833","522.094","498.865","0"
"GENERATED VIA SPACETRACK.ORG API","18 SPCS","55099","SPACEBEE-156","PAYLOAD","U","23001CU","2023-05-02 05:12:13","288608","15.18483596","0.0016815","97.4809","182.7755","158.215","201.9803","0","999","1812","0.00085479","0.00017647","0","3898797","0 SPACEBEE-156","1 55099U 23001CU  23122.21682047  .00017647  00000-0  85479-3 0  9995","2 55099  97.4809 182.7755 0016815 158.2150 201.9803 15.18483596 18120","2023-001CU","55099","6888.560","94.831","522.008","498.842","0"
"GENERATED VIA SPACETRACK.ORG API","18 SPCS","55099","SPACEBEE-156","PAYLOAD","U","23001CU","2023-05-02 09:56:53","854944","15.18489275","0.0016816","97.4807","182.9711","157.6132","202.584","0","999","1815","0.00085504","0.00017655","0","3899068","0 SPACEBEE-156","1 55099U 23001CU  23122.41451221  .00017655  00000-0  85504-3 0  9993","2 55099  97.4807 182.9711 0016816 157.6132 202.5840 15.18489275 18157","2023-001CU","55099","6888.543","94.831","521.991","498.824","0"
"GENERATED VIA SPACETRACK.ORG API","18 SPCS","55099","SPACEBEE-156","PAYLOAD","U","23001CU","2023-05-02 17:51:21","287232","15.18499804","0.0016854","97.4806","183.297","156.552","203.6486","0","999","1820","0.00082723","0.00017083","0","3899277","0 SPACEBEE-156","1 55099U 23001CU  23122.74399638  .00017083  00000-0  82723-3 0  9997","2 55099  97.4806 183.2970 0016854 156.5520 203.6486 15.18499804 18201","2023-001CU","55099","6888.511","94.830","521.986","498.766","0"
"GENERATED VIA SPACETRACK.ORG API","18 SPCS","55099","SPACEBEE-156","PAYLOAD","U","23001CU","2023-05-03 09:40:15","531456","15.18518259","0.001694","97.4804","183.9492","154.6773","205.5295","0","999","1830","0.00070571","0.00014566","0","3899820","0 SPACEBEE-156","1 55099U 23001CU  23123.40295754  .00014566  00000-0  70571-3 0  9996","2 55099  97.4804 183.9492 0016940 154.6773 205.5295 15.18518259 18306","2023-001CU","55099","6888.455","94.829","521.989","498.651","0"
"GENERATED VIA SPACETRACK.ORG API","18 SPCS","55099","SPACEBEE-156","PAYLOAD","U","23001CU","2023-05-03 09:40:15","531456","15.18518259","0.001694","97.4804","183.9492","154.6773","205.5295","0","999","1830","0.00070571","0.00014566","0","3899966","0 SPACEBEE-156","1 55099U 23001CU  23123.40295754  .00014566  00000-0  70571-3 0  9996","2 55099  97.4804 183.9492 0016940 154.6773 205.5295 15.18518259 18306","2023-001CU","55099","6888.455","94.829","521.989","498.651","0"
"GENERATED VIA SPACETRACK.ORG API","18 SPCS","55099","SPACEBEE-156","PAYLOAD","U","23001CU","2023-05-03 17:34:42","373632","15.18529665","0.0016946","97.4803","184.2752","153.7347","206.475","0","999","1835","0.00074292","0.00015345","0","3900281","0 SPACEBEE-156","1 55099U 23001CU  23123.73243488  .00015345  00000-0  74292-3 0  9999","2 55099  97.4803 184.2752 0016946 153.7347 206.4750 15.18529665 18355","2023-001CU","55099","6888.421","94.829","521.959","498.612","0"
"GENERATED VIA SPACETRACK.ORG API","18 SPCS","55099","SPACEBEE-156","PAYLOAD","U","23001CU","2023-05-04 03:04:02","271648","15.18544133","0.0016957","97.4803","184.6663","152.5418","207.6715","0","999","1841","0.00078674","0.00016263","0","3900892","0 SPACEBEE-156","1 55099U 23001CU  23124.12780407  .00016263  00000-0  78674-3 0  9998","2 55099  97.4803 184.6663 0016957 152.5418 207.6715 15.18544133 18416","2023-001CU","55099","6888.377","94.828","521.922","498.561","0"
"GENERATED VIA SPACETRACK.ORG API","18 SPCS","55099","SPACEBEE-156","PAYLOAD","U","23001CU","2023-05-04 17:18:01","568736","15.18566213","0.001696","97.4802","185.2531","150.7049","209.5139","0","999","1850","0.00087026","0.00018012","0","3901186","0 SPACEBEE-156","1 55099U 23001CU  23124.72085149  .00018012  00000-0  87026-3 0  9990","2 55099  97.4802 185.2531 0016960 150.7049 209.5139 15.18566213 18504","2023-001CU","55099","6888.310","94.826","521.858","498.492","0"
"GENERATED VIA SPACETRACK.ORG API","18 SPCS","55099","SPACEBEE-156","PAYLOAD","U","23001CU","2023-05-04 22:02:41","175168","15.18573075","0.0016979","97.4801","185.4486","150.0554","210.1655","0","999","1853","0.00087324","0.00018078","0","3901183","0 SPACEBEE-156","1 55099U 23001CU  23124.91853212  .00018078  00000-0  87324-3 0  9998","2 55099  97.4801 185.4486 0016979 150.0554 210.1655 15.18573075 18536","2023-001CU","55099","6888.289","94.826","521.850","498.459","0"
"GENERATED VIA SPACETRACK.ORG API","18 SPCS","55099","SPACEBEE-156","PAYLOAD","U","23001CU","2023-05-05 17:01:18","747264","15.18601948","0.0017012","97.4801","186.2311","147.4551","212.7735","0","999","1865","0.00084237","0.0001745","0","3901993","0 SPACEBEE-156","1 55099U 23001CU  23125.70924476  .00017450  00000-0  84237-3 0  9990","2 55099  97.4801 186.2311 0017012 147.4551 212.7735 15.18601948 18659","2023-001CU","55099","6888.202","94.824","521.785","498.349","0"
